#dP2023 12  9  0  0  0.00000000      96 __u+U IGS20 FIT  IAC
## 2291 518400.00000000   900.00000000 60287 0.0000000000000
+  117   C06C07C08C09C10C11C12C13C14C16C19C20C21C22C23C24C25
+        C26C27C28C29C30C32C33C34C35C36C37C38C39C40C41C42C43
+        C44C45C46E02E03E04E05E07E08E09E10E11E12E13E15E18E19
+        E21E24E25E26E27E30E31E33E34E36G01G02G03G04G05G06G07
+        G09G10G11G12G13G14G15G16G17G18G19G20G21G22G23G24G25
+        G26G27G28G29G30G31G32J02J03J04R01R02R03R04R05R07R08
+        R09R11R12R13R14R15R16R17R18R19R20R21R22R24R25  0  0
++         7 12  8  6 11  9  7  8  7  8  7  5  7  6  7  6  7
++         6  6  7  7  7  6  7  7  7  5  6  7  8  8  6  7  7
++         6  6  6  7  7  7  7  7  6  6  5  6  6  6  6  7  6
++         6  6  7  6  5  6  6  6  6  6  7  6  7  6  6  5  6
++         6  6  6  6  6  5  6  7  6  6  5  7  6  6  8  7  6
++         6  6  6  5  5  6  6  7  7  9  7  7  6  7  6  6  7
++         6  6  7  5  6  5  6  5  6  6  6  6  7  6  7  0  0
%c M  cc GPS ccc cccc cccc cccc cccc ccccc ccccc ccccc ccccc
%c cc cc ccc ccc cccc cccc cccc cccc ccccc ccccc ccccc ccccc
%f  0.0000000  0.000000000  0.00000000000  0.000000000000000
%f  0.0000000  0.000000000  0.00000000000  0.000000000000000
%i    0    0    0    0      0      0      0      0         0
%i    0    0    0    0      0      0      0      0         0
/* INFORMATION & ANALYSIS CENTER (IAC)      ULTRA-RAPID DATA
/* S/V CLOCKS ARE ALIGNED TO GNSS TIME                      
/* G:C1WC2W R:C1PC2P E:C1XC5X C:C2IC6I J:C1CC2S             
/* PCV:IGS20_2290 OL/AL:FES2004  NONE     YN ORB:CoN CLK:CoN
*  2023 12 09 19 30  0.00000000
PC06 -18040.391233  27015.879561 -26996.267537    199.994040
PC07  -7983.396306  40643.495077  -7294.327925   -448.610596
PC08   1275.038839  24935.175685  34040.848705    190.883731
PC09  -7255.554056  26108.716437 -32030.467222   -196.038253
PC10  -1290.999910  41840.106968    252.545291    -47.285642
PC11  16775.664803 -19890.919259 -10028.996453    298.031657
PC12  24392.597070 -10834.063829   8204.495737    831.262875
PC13   6558.343027  28135.334725  30987.785858    393.601087
PC14   6138.054693 -23760.866266 -13321.790988   -281.874435
PC16 -20471.806379  26389.910312 -25693.091338   -217.641783
PC19    127.026336  27477.866860   4843.666110   -955.016469
PC20 -10618.721056  17674.902930  18799.916683     43.767113
PC21  15895.984782   3762.705688 -22613.058368   -968.266873
PC22  11421.472611  22025.946443 -12763.226321   -193.024670
PC23 -18476.046863 -17168.599401  11928.360601   -806.624607
PC24  18792.648424  -7208.095838  19322.118786    676.604313
PC25  -1022.390927 -17313.719324  21843.567267    274.352096
PC26  26625.950843   5874.689388   6013.281977   -217.875588
PC27 -23065.962499   3818.947777 -15257.838489    239.863971
PC28 -12296.699059 -10622.379697 -22677.470328    181.399302
PC29  -7348.911401  21041.123848  16793.425825    212.343989
PC30 -21705.969059  17556.641127    122.424356    -10.040815
PC32 -15950.324835  -3786.931378  22594.202978   -541.242509
PC33   -245.463080 -27472.982607  -4919.729571   -942.103104
PC34  21016.943758 -18273.967218  -1589.687623    321.328897
PC35  12748.761420  10205.726693  22617.896421    484.437136
PC36   -258.399159  17108.258709 -22033.322338    -99.823341
PC37 -26469.837470  -6892.956313  -5447.261548   -917.916166
PC38  -7524.253563  22323.074210  35037.400541    122.993197
PC39 -23195.215027  27276.359800 -22381.850349     -6.016823
PC40 -13723.429957  38364.362871 -10326.300245    -47.204013
PC41 -11204.786932 -22518.375014  12141.303554   -872.939619
PC42  11336.609210 -16303.028939 -19576.179483   -483.889842
PC43   8170.146663 -21242.832619 -16138.892164     51.636086
PC44  22880.814347  -4452.636793  15311.343874    317.834896
PC45  18886.191032  17013.346124 -11557.336739    -53.508826
PC46 -17825.443348   7894.148093 -19961.709688   -106.212959
PE02   1494.773647  23875.940614 -17453.539289     85.259925
PE03  -8287.584477  27645.406432  -6570.238400    -79.010853
PE04  -7058.904829 -19439.007558  21175.291437   -276.316407
PE05 -18692.983131  19732.197867  11722.442421   4698.895860
PE07  18103.830289    264.818130 -23419.086079    -92.169795
PE08   6523.379365  19841.760662 -20978.591415   -189.657051
PE09 -17926.782285   -346.894179  23545.017633   -257.073637
PE10 -23909.721310  -8173.694005 -15408.840090   -585.105550
PE11 -28955.657960  -1798.111321  -5901.147289   3258.018062
PE12 -15838.482699 -12813.608665 -21474.097703   -811.795402
PE13  28765.288426   2210.344122   6626.210474    -19.663685
PE15  15307.612392  12940.424854  21791.908112    -73.845720
PE18  14026.939177 -28255.693710  -2331.596382     75.905332
PE19  10130.933290 -27470.207531   4324.614024  -1048.515293
PE21  13602.082420  -9838.951677  24376.339762   -568.069295
PE24 -21524.967825 -11010.286180 -17074.373014   -476.840809
PE25 -13842.992102   9485.959231 -24381.410071     -2.211713
PE26  24778.397615 -10047.867243 -12693.086070    304.883928
PE27  21505.626683  10551.090377  17398.594677   -220.111671
PE30  16386.631892  24664.116706    -64.113706   -728.615976
PE31 -16635.488936 -24475.389280   -247.109925    -11.425157
PE33   7593.078323 -15869.256167 -23797.576643      3.892463
PE34  -6866.292498  15949.717742  23971.994196    -82.456888
PE36 -25192.738825   9654.104476  12192.463736   -155.419400
PG01  -9287.271358 -13518.367692 -21319.906746    163.757510
PG02  -2214.496759 -14670.144870 -21529.868841   -517.837919
PG03 -11121.862083 -23491.493675  -5881.216864     42.791164
PG04  -2588.380112 -20263.292699  16910.228136    235.113075
PG05   1724.599886  20819.265589  16172.428180   -153.502265
PG06 -24559.737960   6658.219807   7868.628862    482.892693
PG07 -23347.199695  -6755.557810  11734.266513     -7.717091
PG09 -11721.698376 -10481.855770  21311.038929     21.759482
PG10  17667.255552   2774.764501 -19553.284580    -64.656147
PG11 -16687.571230  12011.612329  16808.282780   -494.170950
PG12   8805.499556  24285.668507  -6621.860202   -455.716243
PG13 -13116.568906  22827.582187  -2661.407903    603.928644
PG14 -18984.114804  -6297.503738 -17538.832430    266.285256
PG15    148.845278  24624.460392 -10153.148102    105.290867
PG16   5700.423194 -17017.629632  19100.379776   -407.234025
PG17 -17469.884834   4400.014486 -19128.921994    722.241208
PG18  24109.002359   5479.558537   9962.267771   -501.863203
PG19 -18907.918123  12099.025800 -14107.674661    410.208485
PG20  -8912.280042  12853.848279  21533.009065    397.478210
PG21   1230.167995 -15162.488759 -21172.756054    142.010489
PG22 -15899.651943   1087.829632 -20757.619508     69.003807
PG23  19565.459196  14155.128578 -11254.221894    113.142441
PG24   3136.588749  15692.052006 -21604.560808   -389.795084
PG25  17342.611848  19855.972433   3942.906358    480.820397
PG26  12433.924936  -9676.320854  21244.799622    210.544154
PG27  12736.400323 -22893.352224   2355.452921    -80.876861
PG28  25269.277411  -6312.867905   5160.708833    -65.880580
PG29   9975.343355  11901.519047  21489.099711   -609.885351
PG30 -26657.845067    614.260757   1614.454377   -459.304183
PG31  21190.888285 -10043.522671  12649.428210   -226.467021
PG32  17664.597517  -8607.252634 -17582.667162   -594.661609
PJ02 -20818.877281  22340.757482 -24410.510706     -0.487251
PJ03 -29540.997044  28018.809780  16372.105852    -11.307337
PJ04 -27015.462436  28206.995303  21728.183250     73.854474
PR01  -7103.115362 -18455.902096  16112.908733     71.753119
PR02 -10782.790176   -712.396811  23146.383054    -22.317820
PR03  -8817.578628  17352.142842  16568.038801     90.602806
PR04  -2225.331204  25399.133480   1120.640875    214.530723
PR05   5561.245727  19905.120214 -14965.166350    123.552615
PR07   8550.284434 -17974.299072 -15880.346224     70.972822
PR08   1884.737415 -25403.585513   -773.760455    -73.597577
PR09  21932.769030   7229.153123  10761.088843    157.812407
PR11  -3015.647349 -13863.762830  21208.669467   -219.794174
PR12 -18573.944833 -16029.808207   6968.159839     34.302742
PR13 -22186.765688  -9073.638992  -8732.554161    -42.137112
PR14 -12322.821830   4704.485123 -21829.070212     25.742179
PR15   4219.673187  14519.887185 -20528.741174     84.103118
PR16  18537.841983  15925.314718  -7249.656951     21.392756
PR17 -21061.964977  13239.486908   5555.437796     42.084341
PR18  -9232.963149  14058.588522  19218.863114    116.058931
PR19   5722.488289   8799.492925  23255.537888   -257.679369
PR20  21814.937007  -3444.903039  12745.210726   -104.862351
PR21  20959.492053 -13222.834029  -6096.469999    -59.705733
PR22   8505.992406 -13908.613429 -19582.061757     97.491870
PR24 -22004.039481   4471.499256 -12062.494212    -35.292860
PR25   2082.575731 -25384.094318  -1544.914265    -13.004559
EOF
